[{"OBJECT_NAME":"STARLINK-1191","OBJECT_ID":"2020-012AW","EPOCH":"2026-03-09T05:05:39.649344","MEAN_MOTION":15.30216929,"ECCENTRICITY":0.00013757,"INCLINATION":53.1617,"RA_OF_ASC_NODE":1.0406,"ARG_OF_PERICENTER":90.2006,"MEAN_ANOMALY":269.9152,"EPHEMERIS_TYPE":0,"CLASSIFICATION_TYPE":"U","NORAD_CAT_ID":45222,"ELEMENT_SET_NO":999,"REV_AT_EPOCH":33544,"BSTAR":0.00035499959,"MEAN_MOTION_DOT":0.00010175,"MEAN_MOTION_DDOT":0},{"OBJECT_NAME":"JILIN-1 GAOFEN 03D48","OBJECT_ID":"2022-167P","EPOCH":"2026-03-09T23:48:37.804608","MEAN_MOTION":15.32947339,"ECCENTRICITY":0.00075954,"INCLINATION":97.6781,"RA_OF_ASC_NODE":234.4968,"ARG_OF_PERICENTER":111.3084,"MEAN_ANOMALY":248.8969,"EPHEMERIS_TYPE":0,"CLASSIFICATION_TYPE":"U","NORAD_CAT_ID":54695,"ELEMENT_SET_NO":999,"REV_AT_EPOCH":18018,"BSTAR":0.00049677114,"MEAN_MOTION_DOT":0.00015755,"MEAN_MOTION_DDOT":0}]
